[{"OBJECT_NAME":"KHAYYAM","OBJECT_ID":"2022-096A","EPOCH":"2026-03-09T23:16:46.350624","MEAN_MOTION":15.24771015,"ECCENTRICITY":0.00024081,"INCLINATION":97.351,"RA_OF_ASC_NODE":334.9969,"ARG_OF_PERICENTER":70.558,"MEAN_ANOMALY":289.5917,"EPHEMERIS_TYPE":0,"CLASSIFICATION_TYPE":"U","NORAD_CAT_ID":53370,"ELEMENT_SET_NO":999,"REV_AT_EPOCH":19946,"BSTAR":0.00026923471,"MEAN_MOTION_DOT":6.603e-5,"MEAN_MOTION_DDOT":0},{"OBJECT_NAME":"TRANSPORTER-15 OBJECT C","OBJECT_ID":"2025-276C","EPOCH":"2026-03-09T17:56:22.913088","MEAN_MOTION":15.22195559,"ECCENTRICITY":0.00067905,"INCLINATION":97.4128,"RA_OF_ASC_NODE":143.9755,"ARG_OF_PERICENTER":5.1753,"MEAN_ANOMALY":354.9553,"EPHEMERIS_TYPE":0,"CLASSIFICATION_TYPE":"U","NORAD_CAT_ID":66668,"ELEMENT_SET_NO":999,"REV_AT_EPOCH":1533,"BSTAR":0.0013438378,"MEAN_MOTION_DOT":0.00030911,"MEAN_MOTION_DDOT":0}]
